{"results":1,"data":[{"icao":"LHBP","barometer":{"hg":30.12,"hpa":1020.0,"kpa":102.0,"mb":1019.98},"clouds":[{"code":"CAVOK","text":"Clear skies"}],"dewpoint":{"celsius":7,"fahrenheit":45},"elevation":{"feet":463.0,"meters":141.0},"flight_category":"VFR","humidity":{"percent":87},"observed":"2024-10-12T18:00:00","station":{"geometry":{"coordinates":[19.261093,47.42976],"type":"Point"},"location":"Vecsés, Central Hungary, Hungary","name":"Budapest Liszt Ferenc International Airport","type":"Airport"},"temperature":{"celsius":9,"fahrenheit":48},"raw_text":"LHBP 121800Z 10004KT CAVOK 09/07 Q1020 NOSIG","visibility":{"miles":"Greater than 6","miles_float":6.0,"meters":"9,700","meters_float":9700.0},"wind":{"degrees":100,"speed_kph":7,"speed_kts":4,"speed_mph":5,"speed_mps":2}}]}